GPS BIIR-2  (PRN 13)    
1 24876U 97035A   26117.34642491  .00000048  00000+0  00000+0 0  9991
2 24876  55.9682 100.5615 0099973  56.2118 304.7322  2.00563834210939
GPS BIIR-5  (PRN 22)    
1 26407U 00040A   26117.44446810 -.00000044  00000+0  00000+0 0  9998
2 26407  54.8614 217.1773 0121558 302.3581  63.6187  2.00557238188933
GPS BIIR-8  (PRN 16)    
1 27663U 03005A   26117.26422242 -.00000045  00000+0  00000+0 0  9991
2 27663  54.8924 216.9917 0148189  52.9628 318.0481  2.00563298170295
GPS BIIR-11 (PRN 19)    
1 28190U 04009A   26116.53875589 -.00000049  00000+0  00000+0 0  9991
2 28190  54.8736 277.7725 0113683 170.8393 190.7377  2.00556343161915
GPS BIIR-13 (PRN 02)    
1 28474U 04045A   26117.19938378 -.00000076  00000+0  00000+0 0  9995
2 28474  55.1651 326.9497 0170076 315.0111 228.8065  2.00553547157402
GPS BIIRM-1 (PRN 17)    
1 28874U 05038A   26117.49126108 -.00000058  00000+0  00000+0 0  9995
2 28874  54.9208 275.2219 0127780 295.8558  59.9369  2.00569188150819
GPS BIIRM-2 (PRN 31)    
1 29486U 06042A   26117.11496532  .00000065  00000+0  00000+0 0  9998
2 29486  54.7027 153.3668 0106138  53.4661 288.2938  2.00572699143369
GPS BIIRM-3 (PRN 12)    
1 29601U 06052A   26114.57003035 -.00000038  00000+0  00000+0 0  9998
2 29601  54.9441 216.1310 0086480  90.2480 270.7556  2.00555028142332
GPS BIIRM-4 (PRN 15)    
1 32260U 07047A   26116.86945643  .00000003  00000+0  00000+0 0  9993
2 32260  54.0586  82.1794 0164787  86.5004 275.3611  2.00557863135785
GPS BIIRM-5 (PRN 29)    
1 32384U 07062A   26116.93297485 -.00000052  00000+0  00000+0 0  9994
2 32384  55.0742 276.2115 0034581 162.4186  10.5045  2.00556888134485
GPS BIIRM-6 (PRN 07)    
1 32711U 08012A   26117.28346376  .00000068  00000+0  00000+0 0  9993
2 32711  54.4885 151.9586 0209749 247.1216 110.7185  2.00571022132737
GPS BIIRM-8 (PRN 05)    
1 35752U 09043A   26116.78028897 -.00000106  00000+0  00000+0 0  9999
2 35752  56.1799  29.4711 0052981  81.3730 288.5810  2.00557087122339
GPS BIIF-1  (PRN 25)    
1 36585U 10022A   26116.35461566 -.00000042  00000+0  00000+0 0  9999
2 36585  54.2771 210.6498 0126616  66.0747 113.7256  2.00559819116559
GPS BIIF-3  (PRN 24)    
1 38833U 12053A   26113.97246792  .00000040  00000+0  00000+0 0  9997
2 38833  53.5743 145.8203 0177937  65.1328 296.7656  2.00566553 98354
GPS BIIF-4  (PRN 27)    
1 39166U 13023A   26116.33094632 -.00000048  00000+0  00000+0 0  9991
2 39166  54.5462 271.0846 0141890  50.6724 310.5447  2.00563766 94842
GPS BIIF-5  (PRN 30)    
1 39533U 14008A   26116.83025517  .00000062  00000+0  00000+0 0  9999
2 39533  53.6447 151.4146 0083805 230.1392 129.1882  2.00556494 88653
GPS BIIF-6  (PRN 06)    
1 39741U 14026A   26117.10606969 -.00000079  00000+0  00000+0 0  9996
2 39741  56.5216 333.5063 0038926 326.6984  33.0950  2.00564781 87514
